BEIDOU 9                
1 37763U 11038A   19292.88618185 -.00000070  00000-0  10000-3 0  9999
2 37763  54.4291 187.6684 0063963 224.8905  28.2676  1.00261574 30257
SJ-11-02                
1 37765U 11039A   19293.45295126 -.00000004  00000-0  93258-5 0  9997
2 37765  98.4724 103.1658 0010012 274.3521  85.6544 14.61554139438620
ASTRA 1N                
1 37775U 11041A   19292.86714654  .00000120  00000-0  00000-0 0  9993
2 37775   0.0587  52.8329 0000696  94.9818 211.6341  1.00273417 20139
BSAT-3C (JCSAT-110R)    
1 37776U 11041B   19293.45268035 -.00000352  00000-0  00000+0 0  9994
2 37776   0.0612  84.4982 0000088 269.7255 307.3504  1.00270757 30136
PAKSAT-1R               
1 37779U 11042A   19292.83869052  .00000154  00000-0  00000+0 0  9994
2 37779   0.0288 300.2514 0003231 261.5000 166.2233  1.00273381 29897
HAIYANG-2A              
1 37781U 11043A   19293.38742762  .00001011  00000-0  10380-2 0  9995
2 37781  99.3198 300.2220 0000078  11.3783 348.7385 13.78721430411824
NIGERIASAT-2            
1 37789U 11044B   19293.40060228 -.00000001  00000-0  86467-5 0  9998
2 37789  97.9339 346.5067 0009779 219.7733 140.2755 14.62128947435988
NIGERIASAT-X            
1 37790U 11044C   19293.44957440 -.00002403  00000-0 -50672-3 0  9991
2 37790  98.0303   0.0264 0013432  53.3193 306.9168 14.58581888435720
RASAT                   
1 37791U 11044D   19293.43747123  .00000019  00000-0  12679-4 0  9991
2 37791  98.1181  24.6539 0021040 311.7318  48.2091 14.64736553436963
APRIZESAT 5             
1 37792U 11044E   19293.25228458  .00000058  00000-0  16871-4 0  9998
2 37792  98.4187 117.4156 0057582 211.9886 147.7822 14.75342715439932
APRIZESAT 6             
1 37793U 11044F   19292.90474583  .00000037  00000-0  14661-4 0  9994
2 37793  98.4042  94.0490 0045825 246.8056 270.2459 14.72409979438881
CHINASAT 1A (ZX 1A)     
1 37804U 11047A   19293.08710558 -.00000338  00000-0  00000+0 0  9997
2 37804   0.0563  72.1833 0000662 254.7615 222.5733  1.00272646 29683
COSMOS 2473             
1 37806U 11048A   19293.35628464 -.00000109  00000-0  00000+0 0  9990
2 37806   0.0695  99.0223 0003288 132.1914 272.1205  1.00272552 29681
SES-2                   
1 37809U 11049A   19293.50582227 -.00000198  00000-0  00000+0 0  9995
2 37809   0.0376  55.6277 0002612 160.3957 267.7732  1.00271399 29624
ARABSAT-5C              
1 37810U 11049B   19293.50641769  .00000121  00000-0  00000+0 0  9999
2 37810   0.0670 352.7665 0003846 199.6216  38.5839  1.00271710 29526
EUTELSAT 7 WEST A       
1 37816U 11051A   19293.57423128 -.00000062  00000-0  00000+0 0  9997
2 37816   0.0723  41.8397 0007235 156.9367  29.4173  1.00271880 29582
TACSAT 4                
1 37818U 11052A   19292.50368728 -.00000531  00000-0 -81767-3 0  9991
2 37818  63.1577 292.5090 4593217 221.9844 332.1617  6.02777541177339
QUETZSAT 1              
1 37826U 11054A   19293.41534336 -.00000243  00000-0  00000+0 0  9999
2 37826   0.0137  43.2223 0002743 172.5305 245.3902  1.00272103 29714
COSMOS 2474 [GLONASS-M] 
1 37829U 11055A   19292.76842069  .00000055  00000-0  00000-0 0  9996
2 37829  64.5276 155.2869 0008323 243.8615  47.9688  2.13101944 62625
INTELSAT 18 (IS-18)     
1 37834U 11056A   19292.82056892  .00000053  00000-0  00000+0 0  9998
2 37834   0.0169 205.8882 0002152   8.2547 289.2958  1.00272815 29462
EUTELSAT 16A            
1 37836U 11057A   19292.90969788  .00000104  00000-0  00000-0 0  9995
2 37836   0.0686  17.2274 0004553 188.4874 165.8778  1.00273033 21609
MEGHA-TROPIQUES         
1 37838U 11058A   19293.47976642  .00000312  00000-0  27026-4 0  9990
2 37838  19.9789  25.8595 0009456  80.0552 280.0919 14.09686735413930
JUGNU                   
1 37839U 11058B   19293.13299727  .00000325  00000-0  31382-4 0  9990
2 37839  19.9621 306.2118 0018626 248.0073 161.5249 14.12661758414736
SRMSAT                  
1 37841U 11058D   19293.51503142  .00000293  00000-0  15956-4 0  9997
2 37841  19.9736   3.2290 0011902 116.1122   5.5420 14.10641206414193
VIASAT-1                
1 37843U 11059A   19292.90396854 -.00000024  00000-0  00000-0 0  9995
2 37843   0.0184 237.6383 0002465 333.2320  27.5701  1.00271882 22932
GSAT0101 (GALILEO-PFM)  
1 37846U 11060A   19292.86615281 -.00000044  00000-0  00000+0 0  9994
2 37846  56.4691  47.9417 0001059 333.8954  26.1020  1.70475480 49788
GSAT0102 (GALILEO-FM2)  
1 37847U 11060B   19292.78602618 -.00000044  00000-0  00000-0 0  9997
2 37847  56.4696  47.9429 0002791 293.7925  63.0607  1.70475516 49650
SUOMI NPP               
1 37849U 11061A   19292.84582509  .00000011  00000-0  25668-4 0  9997
2 37849  98.7092 229.3263 0000715  98.5313 290.6262 14.19554485413345
M-CUBED & EXP-1 PRIME   
1 37855U 11061F   19292.87956264  .00001400  00000-0  77201-4 0  9993
2 37855 101.7176 251.7259 0173001  71.5214 290.4713 15.05656970435312
COSMOS 2476 [GLONASS-M] 
1 37867U 11064A   19293.22705345  .00000055  00000-0  00000+0 0  9994
2 37867  64.5072 155.3197 0018004 236.2227  93.6312  2.13101960 61986
COSMOS 2477 [GLONASS-M] 
1 37868U 11064B   19292.48639399  .00000055  00000-0  00000+0 0  9997
2 37868  64.5150 155.3998 0015760 237.7793  62.4975  2.13101864 61929
COSMOS 2475 [GLONASS-M] 
1 37869U 11064C   19293.50035667  .00000055  00000-0  00000+0 0  9990
2 37869  64.5219 155.3649 0019462 262.6197  52.7587  2.13102248 61958
YAOGAN 12               
1 37875U 11066B   19293.41587478  .00000586  00000-0  27496-4 0  9993
2 37875  97.4150   7.0741 0007649 269.3001 153.4110 15.23533814442307
CHUANGXIN 1-03 (CX-1-03)
1 37930U 11068A   19293.41900078 -.00000017  00000-0  10440-4 0  9993
2 37930  98.6112 278.3925 0015965  45.8172 314.4322 14.29768312415484
SHIYAN 4 (SY-4)         
1 37931U 11068B   19293.38788173 -.00000005  00000-0  14930-4 0  9995
2 37931  98.6085 278.4094 0014644  45.3103 314.9274 14.29837868413150
ASIASAT 7               
1 37933U 11069A   19293.20515870 -.00000335  00000-0  00000+0 0  9995
2 37933   0.0173 227.6948 0001266 305.1891  34.8915  1.00270808 29072
YAOGAN 13               
1 37941U 11072A   19293.43721611  .00000311  00000-0  18595-4 0  9991
2 37941  97.5322 224.6443 0002438 128.7415   3.7213 15.18105097437405
BEIDOU 10               
1 37948U 11073A   19292.99708483 -.00000129  00000-0  10000-3 0  9991
2 37948  51.9585 300.7593 0064571 212.7991 328.8126  1.00268102 29019
LUCH 5A                 
1 37951U 11074B   19293.58224263 -.00000045  00000-0  00000+0 0  9993
2 37951   2.7319 123.2991 0002799  70.6298 211.4794  1.00269758 28809
SSOT                    
1 38011U 11076E   19293.41522553  .00000094  00000-0  18414-4 0  9994
2 38011  97.8895   9.4314 0001425  79.3457 280.7918 14.81986534424216
PLEIADES 1A             
1 38012U 11076F   19293.46222654 -.00000030  00000-0  32978-5 0  9992
2 38012  98.1896   6.4522 0001489  92.1878 267.9507 14.58560474417533
NIGCOMSAT 1R            
1 38014U 11077A   19293.51095396  .00000143  00000-0  00000+0 0  9991
2 38014   0.0495  56.3009 0001935   7.5574 191.2938  1.00274114 28648
ZIYUAN 1-02C (ZY 1-02C) 
1 38038U 11079A   19293.41337160  .00000054  00000-0  34818-4 0  9996
2 38038  98.7282 339.0599 0006047 258.7809 101.2698 14.35265942410197
GLOBALSTAR M084         
1 38040U 11080A   19293.13566655 -.00000087  00000-0  92701-4 0  9995
2 38040  52.0003 221.3573 0000853  86.9028 355.3004 12.62267134361902
GLOBALSTAR M080         
1 38041U 11080B   19293.36231788 -.00000088  00000-0  90273-4 0  9990
2 38041  52.0054 221.5470 0000931  83.9779  69.0329 12.62268833361911
GLOBALSTAR M082         
1 38042U 11080C   19293.14020487 -.00000092  00000-0  66182-4 0  9996
2 38042  52.0064 177.4515 0000724  52.7647 111.6798 12.62264743362629
GLOBALSTAR M092         
1 38043U 11080D   19293.08764384 -.00000108  00000-0 -25912-4 0  9996
2 38043  52.0081 267.8686 0000361 102.3174 301.6894 12.62266381361117
GLOBALSTAR M090         
1 38044U 11080E   19293.24392560 -.00000097  00000-0  39517-4 0  9990
2 38044  51.9872 173.6086 0000837  67.9641  88.1716 12.62266357362625
GLOBALSTAR M086         
1 38045U 11080F   19292.85100892 -.00000097  00000-0  35358-4 0  9991
2 38045  51.9884 175.1985 0002201  76.5576 331.5829 12.62267978362589
ZIYUAN 3 (ZY 3)         
1 38046U 12001A   19293.40444623  .00000470  00000-0  24086-4 0  9991
2 38046  97.4448   5.7934 0003116 347.6099  75.6913 15.21300159431978
FENGYUN 2F              
1 38049U 12002A   19292.90396074 -.00000357  00000-0  00000-0 0  9996
2 38049   1.5118  83.1178 0001087 310.3297  72.0754  1.00280376 28508
WGS F4 (USA 233)        
1 38070U 12003A   19293.08943000 -.00000215  00000-0  00000+0 0  9990
2 38070   0.0119 221.2810 0000385  55.4283 232.1811  1.00270135 28333
LARES                   
1 38077U 12006A   19292.93695998 -.00000063  00000-0 -15104-3 0  9990
2 38077  69.4925 126.7481 0009793 191.2784 168.8024 12.54930304352012
SES-4                   
1 38087U 12007A   19292.85206108 -.00000168  00000-0  00000-0 0  9995
2 38087   0.0191 295.4186 0002367 294.0844  83.2848  1.00271823 27863
BEIDOU 11               
1 38091U 12008A   19292.97212222  .00000057  00000-0  00000-0 0  9994
2 38091   1.6527  67.1811 0005265 269.5648 100.1812  1.00267863 28091
MUOS-1                  
1 38093U 12009A   19293.52398380  .00000063  00000-0  00000+0 0  9995
2 38093   2.5887 359.2640 0058994 181.9558 219.1352  1.00275094 28074
INTELSAT 22 (IS-22)     
1 38098U 12011A   19292.86609179 -.00000059  00000-0  00000+0 0  9996
2 38098   0.0143 143.7442 0002921  60.1456 208.0665  1.00272591 27664
APSTAR 7                
1 38107U 12013A   19292.08208834 -.00000100  00000-0  00000-0 0  9994
2 38107   0.0035 143.2943 0002824  77.7353 272.3042  1.00268555 27778
YAHSAT 1B               
1 38245U 12016A   19293.08131706  .00000126  00000-0  00000+0 0  9990
2 38245   0.0131 245.9919 0001811 348.6272 230.5440  1.00270994 27538
